NORAD_CAT_ID,OBJECT_NAME,OBJECT_TYPE,EPOCH,MEAN_MOTION,ECCENTRICITY,INCLINATION,RA_OF_ASC_NODE,ARG_OF_PERICENTER,MEAN_ANOMALY,BSTAR,MEAN_MOTION_DOT,MEAN_MOTION_DDOT,TLE_LINE0,TLE_LINE1,TLE_LINE2,SEMIMAJOR_AXIS,PERIOD,APOGEE,PERIGEE,DECAYED
53608.0,STARLINK-4647,PAYLOAD,2024-06-30 12:57:24,15.08833053,0.0001496,53.2168,124.809,106.628,253.4876,-4.7923e-05,-1.05e-05,0.0,0 STARLINK-4647,1 53608U 22104W   24182.53986233 -.00001050  00000-0 -47923-4 0  9994,2 53608  53.2168 124.8090 0001496 106.6280 253.4876 15.08833053102460,6917.902,95.438,540.802,538.732,0.0
53608.0,STARLINK-4647,PAYLOAD,2024-07-01 12:48:10,15.08850518,0.0001373,53.2163,120.3466,97.1994,262.9154,0.00040725,6.201e-05,0.0,0 STARLINK-4647,1 53608U 22104W   24183.53345999  .00006201  00000-0  40725-3 0  9996,2 53608  53.2163 120.3466 0001373  97.1994 262.9154 15.08850518102046,6917.848,95.437,540.663,538.763,0.0
53608.0,STARLINK-4647,PAYLOAD,2024-07-02 04:42:02,15.08841619,0.0001485,53.2162,117.3714,91.6368,268.4794,0.00028634,4.272e-05,0.0,0 STARLINK-4647,1 53608U 22104W   24184.19586744  .00004272  00000-0  28634-3 0  9995,2 53608  53.2162 117.3714 0001485  91.6368 268.4794 15.08841619102149,6917.875,95.437,540.768,538.713,0.0
53608.0,STARLINK-4647,PAYLOAD,2024-07-02 12:38:58,15.08856722,0.0001413,53.2158,115.8834,83.1653,276.9499,0.00070633,0.00010976,0.0,0 STARLINK-4647,1 53608U 22104W   24184.52706355  .00010976  00000-0  70633-3 0  9998,2 53608  53.2158 115.8834 0001413  83.1653 276.9499 15.08856722102769,6917.829,95.436,540.672,538.717,0.0
53608.0,STARLINK-4647,PAYLOAD,2024-07-03 04:32:49,15.08846719,0.0001158,53.2145,112.911,87.5839,272.5286,0.0013071,0.0002058,0.0,0 STARLINK-4647,1 53608U 22104W   24185.18946585  .00020580  00000-0  13071-2 0  9996,2 53608  53.2145 112.9110 0001158  87.5839 272.5286 15.08846719102299,6917.86,95.437,540.526,538.924,0.0
53608.0,STARLINK-4647,PAYLOAD,2024-07-03 12:29:45,15.08853337,0.0001233,53.2144,111.4237,87.367,272.7463,0.00097127,0.00015209,0.0,0 STARLINK-4647,1 53608U 22104W   24185.52066414  .00015209  00000-0  97127-3 0  9995,2 53608  53.2144 111.4237 0001233  87.3670 272.7463 15.08853337102919,6917.84,95.437,540.558,538.852,0.0
53608.0,STARLINK-4647,PAYLOAD,2024-07-04 04:23:37,15.088435,0.0001406,53.2149,108.4491,100.9313,259.1837,0.00081748,0.00012747,0.0,0 STARLINK-4647,1 53608U 22104W   24186.18306788  .00012747  00000-0  81748-3 0  9995,2 53608  53.2149 108.4491 0001406 100.9313 259.1837 15.08843500102443,6917.87,95.437,540.707,538.762,0.0
53608.0,STARLINK-4647,PAYLOAD,2024-07-04 12:20:32,15.08856887,0.0001416,53.2154,106.9625,97.8118,262.3035,0.0011307,0.00017761,0.0,0 STARLINK-4647,1 53608U 22104W   24186.51426551  .00017761  00000-0  11307-2 0  9997,2 53608  53.2154 106.9625 0001416  97.8118 262.3035 15.08856887103066,6917.829,95.436,540.673,538.714,0.0
53608.0,STARLINK-4647,PAYLOAD,2024-07-04 21:52:51,15.08853718,0.000226,53.215,105.1756,105.5992,254.5249,0.00079894,0.00012455,0.0,0 STARLINK-4647,1 53608U 22104W   24186.91170622  .00012455  00000-0  79894-3 0  9997,2 53608  53.2150 105.1756 0002260 105.5992 254.5249 15.08853718103120,6917.838,95.437,541.267,538.14,0.0
53608.0,STARLINK-4647,PAYLOAD,2024-07-05 04:14:23,15.08848074,0.0001535,53.2165,103.9879,93.8074,266.3093,0.00028862,4.309e-05,0.0,0 STARLINK-4647,1 53608U 22104W   24187.17666477  .00004309  00000-0  28862-3 0  9992,2 53608  53.2165 103.9879 0001535  93.8074 266.3093 15.08848074102599,6917.856,95.437,540.783,538.659,0.0
53608.0,STARLINK-4647,PAYLOAD,2024-07-05 21:43:38,15.088429,0.0001685,53.2169,100.7146,97.8999,262.2184,0.00015132,2.121e-05,0.0,0 STARLINK-4647,1 53608U 22104W   24187.90530745  .00002121  00000-0  15132-3 0  9997,2 53608  53.2169 100.7146 0001685  97.8999 262.2184 15.08842900103275,6917.872,95.437,540.902,538.571,0.0
53608.0,STARLINK-4647,PAYLOAD,2024-07-06 04:05:11,15.0883429,0.0001577,53.217,99.5264,101.5318,258.5851,5.2972e-06,-2.04e-06,0.0,0 STARLINK-4647,1 53608U 22104W   24188.17027148 -.00000204  00000-0  52972-5 0  9991,2 53608  53.2170  99.5264 0001577 101.5318 258.5851 15.08834290102744,6917.898,95.438,540.854,538.672,0.0
53608.0,STARLINK-4647,PAYLOAD,2024-07-06 21:34:26,15.08833181,0.0001493,53.2168,96.2561,99.7654,260.3506,4.0707e-06,-2.23e-06,0.0,0 STARLINK-4647,1 53608U 22104W   24188.89891360 -.00000223  00000-0  40707-5 0  9999,2 53608  53.2168  96.2561 0001493  99.7654 260.3506 15.08833181103425,6917.901,95.438,540.799,538.733,0.0
53608.0,STARLINK-4647,PAYLOAD,2024-07-07 03:55:59,15.08831881,0.0001271,53.2162,95.0705,88.6049,271.5089,-5.2331e-05,-1.12e-05,0.0,0 STARLINK-4647,1 53608U 22104W   24189.16387941 -.00001120  00000-0 -52331-4 0  9998,2 53608  53.2162  95.0705 0001271  88.6049 271.5089 15.08831881103464,6917.905,95.438,540.649,538.891,0.0
53608.0,STARLINK-4647,PAYLOAD,2024-07-07 18:14:26,15.08836498,0.0001258,53.2164,92.3944,95.9846,264.129,9.8108e-05,1.274e-05,0.0,0 STARLINK-4647,1 53608U 22104W   24189.76003442  .00001274  00000-0  98108-4 0  9995,2 53608  53.2164  92.3944 0001258  95.9846 264.1290 15.08836498102989,6917.891,95.438,540.626,538.886,0.0
53608.0,STARLINK-4647,PAYLOAD,2024-07-07 23:00:35,15.08843178,0.0001281,53.2164,91.5023,96.0155,264.0983,0.0001552,2.183e-05,0.0,0 STARLINK-4647,1 53608U 22104W   24189.95874970  .00002183  00000-0  15520-3 0  9994,2 53608  53.2164  91.5023 0001281  96.0155 264.0983 15.08843178103015,6917.871,95.437,540.622,538.849,0.0
53608.0,STARLINK-4647,PAYLOAD,2024-07-08 10:08:16,15.08856636,0.0001293,53.2181,89.421,94.6832,265.4308,0.00024484,3.613e-05,0.0,0 STARLINK-4647,1 53608U 22104W   24190.42241692  .00003613  00000-0  24484-3 0  9995,2 53608  53.2181  89.4210 0001293  94.6832 265.4308 15.08856636103083,6917.83,95.437,540.589,538.8,0.0
53608.0,STARLINK-4647,PAYLOAD,2024-07-08 21:16:00,15.08827542,0.0001318,53.2173,87.3391,81.5838,278.5303,9.4507e-05,1.216e-05,0.0,0 STARLINK-4647,1 53608U 22104W   24190.88612230  .00001216  00000-0  94507-4 0  9996,2 53608  53.2173  87.3391 0001318  81.5838 278.5303 15.08827542103152,6917.918,95.438,540.695,538.872,0.0
53608.0,STARLINK-4647,PAYLOAD,2024-07-08 22:51:23,15.08831807,0.0001425,53.2167,87.0421,78.7487,281.3665,2.0813e-05,4.3e-07,0.0,0 STARLINK-4647,1 53608U 22104W   24190.95235661  .00000043  00000-0  20813-4 0  9999,2 53608  53.2167  87.0421 0001425  78.7487 281.3665 15.08831807103739,6917.905,95.438,540.756,538.785,0.0
53608.0,STARLINK-4647,PAYLOAD,2024-07-09 02:02:09,15.0883836,0.0001474,53.2173,86.4493,95.1019,265.0142,0.0001057,1.395e-05,0.0,0 STARLINK-4647,1 53608U 22104W   24191.08483338  .00001395  00000-0  10570-3 0  9999,2 53608  53.2173  86.4493 0001474  95.1019 265.0142 15.08838360103185,6917.885,95.438,540.77,538.731,0.0
53608.0,STARLINK-4647,PAYLOAD,2024-07-09 09:59:04,15.08851773,0.0001465,53.2182,84.9629,87.2146,272.9014,0.00023249,3.415e-05,0.0,0 STARLINK-4647,1 53608U 22104W   24191.41602622  .00003415  00000-0  23249-3 0  9997,2 53608  53.2182  84.9629 0001465  87.2146 272.9014 15.08851773103236,6917.844,95.437,540.723,538.696,0.0
53608.0,STARLINK-4647,PAYLOAD,2024-07-09 21:06:47,15.08829522,0.000162,53.2164,82.8769,86.0166,274.1011,-0.00024589,-4.198e-05,0.0,0 STARLINK-4647,1 53608U 22104W   24191.87971665 -.00004198  00000-0 -24589-3 0  9992,2 53608  53.2164  82.8769 0001620  86.0166 274.1011 15.08829522103306,6917.912,95.438,540.898,538.657,0.0
53608.0,STARLINK-4647,PAYLOAD,2024-07-09 22:42:10,15.08830191,0.000148,53.217,82.5851,90.5485,269.5677,-0.00023166,-3.972e-05,0.0,0 STARLINK-4647,1 53608U 22104W   24191.94595529 -.00003972  00000-0 -23166-3 0  9990,2 53608  53.2170  82.5851 0001480  90.5485 269.5677 15.08830191103883,6917.91,95.438,540.799,538.752,0.0
53608.0,STARLINK-4647,PAYLOAD,2024-07-10 09:49:52,15.08840496,0.0001698,53.2173,80.4985,80.2442,279.8742,0.00024319,3.584e-05,0.0,0 STARLINK-4647,1 53608U 22104W   24192.40963493  .00003584  00000-0  24319-3 0  9999,2 53608  53.2173  80.4985 0001698  80.2442 279.8742 15.08840496103382,6917.879,95.438,540.919,538.569,0.0
53608.0,STARLINK-4647,PAYLOAD,2024-07-10 22:32:57,15.08837962,0.0001632,53.2167,78.12,82.9761,277.1417,0.00037271,5.648e-05,0.0,0 STARLINK-4647,1 53608U 22104W   24192.93956000  .00005648  00000-0  37271-3 0  9997,2 53608  53.2167  78.1200 0001632  82.9761 277.1417 15.08837962104037,6917.887,95.438,540.881,538.623,0.0
53608.0,STARLINK-4647,PAYLOAD,2024-07-11 00:08:20,15.08842848,0.0001334,53.2156,77.8224,84.7184,275.396,0.00055028,8.481e-05,0.0,0 STARLINK-4647,1 53608U 22104W   24193.00579758  .00008481  00000-0  55028-3 0  9995,2 53608  53.2156  77.8224 0001334  84.7184 275.3960 15.08842848104048,6917.872,95.437,540.66,538.814,0.0
53608.0,STARLINK-4647,PAYLOAD,2024-07-12 01:34:31,15.0884781,0.0001486,53.2163,73.0631,79.0539,281.062,0.0003776,5.728e-05,0.0,0 STARLINK-4647,1 53608U 22104W   24194.06563795  .00005728  00000-0  37760-3 0  9990,2 53608  53.2163  73.0631 0001486  79.0539 281.0620 15.08847810103630,6917.857,95.437,540.75,538.694,0.0
53608.0,STARLINK-4647,PAYLOAD,2024-07-12 09:31:26,15.08853169,0.0001397,53.2163,71.5776,86.4937,273.6215,0.00039212,5.96e-05,0.0,0 STARLINK-4647,1 53608U 22104W   24194.39683446  .00005960  00000-0  39212-3 0  9994,2 53608  53.2163  71.5776 0001397  86.4937 273.6215 15.08853169104258,6917.84,95.437,540.672,538.739,0.0
53608.0,STARLINK-4647,PAYLOAD,2024-07-12 20:39:08,15.08845883,0.0001616,53.2176,69.4944,105.8986,254.2184,0.00017897,2.562e-05,0.0,0 STARLINK-4647,1 53608U 22104W   24194.86051555  .00002562  00000-0  17897-3 0  9996,2 53608  53.2176  69.4944 0001616 105.8986 254.2184 15.08845883103757,6917.862,95.437,540.845,538.609,0.0
53608.0,STARLINK-4647,PAYLOAD,2024-07-12 22:14:31,15.0884382,0.000165,53.2183,69.1983,95.1429,264.9751,0.00013088,1.796e-05,0.0,0 STARLINK-4647,1 53608U 22104W   24194.92675700  .00001796  00000-0  13088-3 0  9993,2 53608  53.2183  69.1983 0001650  95.1429 264.9751 15.08843820104338,6917.869,95.437,540.875,538.592,0.0
